<?xml version="1.0" encoding="UTF-8" standalone="no"?>
<gpx xmlns="http://www.topografix.com/GPX/1/1" xmlns:xsi="http://www.w3.org/2001/XMLSchema-instance" xsi:schemaLocation="http://www.topografix.com/GPX/1/1 http://www.topografix.com/GPX/1/1/gpx.xsd" version="1.1" creator="dhl-relay">
  <wpt lat="55.7023379" lon="12.5671641">
    <time>2026-01-01T00:00:00Z</time>
  </wpt>
  <wpt lat="55.7024397" lon="12.5669539">
    <time>2026-01-01T00:00:01Z</time>
  </wpt>
  <wpt lat="55.7017687" lon="12.56616">
    <time>2026-01-01T00:00:02Z</time>
  </wpt>
  <wpt lat="55.7011762" lon="12.5660205">
    <time>2026-01-01T00:00:04Z</time>
  </wpt>
  <wpt lat="55.7011218" lon="12.5670505">
    <time>2026-01-01T00:00:05Z</time>
  </wpt>
  <wpt lat="55.7005293" lon="12.5683701">
    <time>2026-01-01T00:00:07Z</time>
  </wpt>
  <wpt lat="55.7002995" lon="12.5682735">
    <time>2026-01-01T00:00:08Z</time>
  </wpt>
  <wpt lat="55.7001967" lon="12.5663316">
    <time>2026-01-01T00:00:10Z</time>
  </wpt>
  <wpt lat="55.6994531" lon="12.567147">
    <time>2026-01-01T00:00:11Z</time>
  </wpt>
  <wpt lat="55.6990299" lon="12.5664282">
    <time>2026-01-01T00:00:13Z</time>
  </wpt>
  <wpt lat="55.6995196" lon="12.5657201">
    <time>2026-01-01T00:00:14Z</time>
  </wpt>
  <wpt lat="55.7001363" lon="12.5654948">
    <time>2026-01-01T00:00:16Z</time>
  </wpt>
  <wpt lat="55.7001967" lon="12.5650871">
    <time>2026-01-01T00:00:17Z</time>
  </wpt>
  <wpt lat="55.70062" lon="12.5650764">
    <time>2026-01-01T00:00:19Z</time>
  </wpt>
  <wpt lat="55.7015087" lon="12.564261">
    <time>2026-01-01T00:00:20Z</time>
  </wpt>
  <wpt lat="55.7024821" lon="12.5634027">
    <time>2026-01-01T00:00:21Z</time>
  </wpt>
  <wpt lat="55.703135" lon="12.5635207">
    <time>2026-01-01T00:00:23Z</time>
  </wpt>
  <wpt lat="55.7036851" lon="12.5641859">
    <time>2026-01-01T00:00:24Z</time>
  </wpt>
  <wpt lat="55.7044529" lon="12.5654733">
    <time>2026-01-01T00:00:26Z</time>
  </wpt>
  <wpt lat="55.7042534" lon="12.5658488">
    <time>2026-01-01T00:00:27Z</time>
  </wpt>
  <wpt lat="55.7042957" lon="12.566117">
    <time>2026-01-01T00:00:29Z</time>
  </wpt>
  <wpt lat="55.7042292" lon="12.5663745">
    <time>2026-01-01T00:00:30Z</time>
  </wpt>
  <wpt lat="55.7039753" lon="12.5665677">
    <time>2026-01-01T00:00:32Z</time>
  </wpt>
  <wpt lat="55.7036972" lon="12.5671685">
    <time>2026-01-01T00:00:33Z</time>
  </wpt>
  <wpt lat="55.7033466" lon="12.5670183">
    <time>2026-01-01T00:00:35Z</time>
  </wpt>
  <wpt lat="55.7029052" lon="12.5671792">
    <time>2026-01-01T00:00:36Z</time>
  </wpt>
  <wpt lat="55.7030564" lon="12.5675118">
    <time>2026-01-01T00:00:38Z</time>
  </wpt>
  <wpt lat="55.7030382" lon="12.5680804">
    <time>2026-01-01T00:00:39Z</time>
  </wpt>
  <wpt lat="55.7028387" lon="12.5683594">
    <time>2026-01-01T00:00:40Z</time>
  </wpt>
  <wpt lat="55.7026332" lon="12.5689816">
    <time>2026-01-01T00:00:42Z</time>
  </wpt>
  <wpt lat="55.7026151" lon="12.5696683">
    <time>2026-01-01T00:00:43Z</time>
  </wpt>
  <wpt lat="55.7024337" lon="12.5700009">
    <time>2026-01-01T00:00:45Z</time>
  </wpt>
  <wpt lat="55.7016115" lon="12.5700653">
    <time>2026-01-01T00:00:46Z</time>
  </wpt>
  <wpt lat="55.7011036" lon="12.5707304">
    <time>2026-01-01T00:00:48Z</time>
  </wpt>
  <wpt lat="55.7002512" lon="12.572211">
    <time>2026-01-01T00:00:49Z</time>
  </wpt>
  <wpt lat="55.6999126" lon="12.5726616">
    <time>2026-01-01T00:00:51Z</time>
  </wpt>
  <wpt lat="55.699435" lon="12.5728333">
    <time>2026-01-01T00:00:52Z</time>
  </wpt>
  <wpt lat="55.6994168" lon="12.574507">
    <time>2026-01-01T00:00:54Z</time>
  </wpt>
  <wpt lat="55.6991689" lon="12.5748825">
    <time>2026-01-01T00:00:55Z</time>
  </wpt>
  <wpt lat="55.6988908" lon="12.574507">
    <time>2026-01-01T00:00:57Z</time>
  </wpt>
  <wpt lat="55.6988848" lon="12.5728011">
    <time>2026-01-01T00:00:58Z</time>
  </wpt>
  <wpt lat="55.6985885" lon="12.5728226">
    <time>2026-01-01T00:01:00Z</time>
  </wpt>
  <wpt lat="55.6981713" lon="12.5724578">
    <time>2026-01-01T00:01:01Z</time>
  </wpt>
  <wpt lat="55.6976755" lon="12.5717282">
    <time>2026-01-01T00:01:02Z</time>
  </wpt>
  <wpt lat="55.6974337" lon="12.5712562">
    <time>2026-01-01T00:01:04Z</time>
  </wpt>
  <wpt lat="55.6974578" lon="12.570709">
    <time>2026-01-01T00:01:05Z</time>
  </wpt>
  <wpt lat="55.6988122" lon="12.5705481">
    <time>2026-01-01T00:01:07Z</time>
  </wpt>
  <wpt lat="55.6988001" lon="12.5701618">
    <time>2026-01-01T00:01:08Z</time>
  </wpt>
  <wpt lat="55.6980322" lon="12.570194">
    <time>2026-01-01T00:01:10Z</time>
  </wpt>
  <wpt lat="55.6980262" lon="12.569797">
    <time>2026-01-01T00:01:11Z</time>
  </wpt>
  <wpt lat="55.698782" lon="12.5696576">
    <time>2026-01-01T00:01:13Z</time>
  </wpt>
  <wpt lat="55.6987457" lon="12.5692499">
    <time>2026-01-01T00:01:14Z</time>
  </wpt>
  <wpt lat="55.6981774" lon="12.569325">
    <time>2026-01-01T00:01:16Z</time>
  </wpt>
  <wpt lat="55.6981653" lon="12.5691319">
    <time>2026-01-01T00:01:17Z</time>
  </wpt>
  <wpt lat="55.6988908" lon="12.5688744">
    <time>2026-01-01T00:01:19Z</time>
  </wpt>
  <wpt lat="55.6990057" lon="12.5700331">
    <time>2026-01-01T00:01:20Z</time>
  </wpt>
  <wpt lat="55.6991931" lon="12.5699794">
    <time>2026-01-01T00:01:21Z</time>
  </wpt>
  <wpt lat="55.6990722" lon="12.5686061">
    <time>2026-01-01T00:01:23Z</time>
  </wpt>
  <wpt lat="55.6993261" lon="12.5685096">
    <time>2026-01-01T00:01:24Z</time>
  </wpt>
  <wpt lat="55.699447" lon="12.5704193">
    <time>2026-01-01T00:01:26Z</time>
  </wpt>
  <wpt lat="55.6996587" lon="12.5703657">
    <time>2026-01-01T00:01:27Z</time>
  </wpt>
  <wpt lat="55.6996526" lon="12.5707304">
    <time>2026-01-01T00:01:29Z</time>
  </wpt>
  <wpt lat="55.6984192" lon="12.5710416">
    <time>2026-01-01T00:01:30Z</time>
  </wpt>
  <wpt lat="55.6984434" lon="12.5713098">
    <time>2026-01-01T00:01:32Z</time>
  </wpt>
  <wpt lat="55.6994652" lon="12.5710845">
    <time>2026-01-01T00:01:33Z</time>
  </wpt>
  <wpt lat="55.6995256" lon="12.57146">
    <time>2026-01-01T00:01:35Z</time>
  </wpt>
  <wpt lat="55.6989513" lon="12.5718462">
    <time>2026-01-01T00:01:36Z</time>
  </wpt>
  <wpt lat="55.6991326" lon="12.5725758">
    <time>2026-01-01T00:01:38Z</time>
  </wpt>
  <wpt lat="55.6993503" lon="12.5725436">
    <time>2026-01-01T00:01:39Z</time>
  </wpt>
  <wpt lat="55.699447" lon="12.5721252">
    <time>2026-01-01T00:01:40Z</time>
  </wpt>
  <wpt lat="55.6999791" lon="12.5717497">
    <time>2026-01-01T00:01:42Z</time>
  </wpt>
  <wpt lat="55.7001423" lon="12.5702906">
    <time>2026-01-01T00:01:43Z</time>
  </wpt>
  <wpt lat="55.7013938" lon="12.5700867">
    <time>2026-01-01T00:01:45Z</time>
  </wpt>
  <wpt lat="55.7014301" lon="12.5697219">
    <time>2026-01-01T00:01:46Z</time>
  </wpt>
  <wpt lat="55.6998642" lon="12.5698185">
    <time>2026-01-01T00:01:48Z</time>
  </wpt>
  <wpt lat="55.6998159" lon="12.5684345">
    <time>2026-01-01T00:01:49Z</time>
  </wpt>
  <wpt lat="55.701158" lon="12.5690138">
    <time>2026-01-01T00:01:51Z</time>
  </wpt>
  <wpt lat="55.7015692" lon="12.5684023">
    <time>2026-01-01T00:01:52Z</time>
  </wpt>
  <wpt lat="55.7015873" lon="12.5681555">
    <time>2026-01-01T00:01:54Z</time>
  </wpt>
  <wpt lat="55.7016115" lon="12.5678766">
    <time>2026-01-01T00:01:55Z</time>
  </wpt>
  <wpt lat="55.7017022" lon="12.5675333">
    <time>2026-01-01T00:01:57Z</time>
  </wpt>
  <wpt lat="55.7017928" lon="12.567426">
    <time>2026-01-01T00:01:58Z</time>
  </wpt>
  <wpt lat="55.7018775" lon="12.5673079">
    <time>2026-01-01T00:02:00Z</time>
  </wpt>
</gpx>
